[Satellite]
VERSION=1.1
NAME=STARLINK-1170
NICKNAME=STARLINK-1170
TLE1=1 45073U 20006AF  20058.91667824  .00007826  00000-0  43498-4 0  9990
TLE2=2 45073  52.9949  87.4979 0001248  72.9067 217.1382 15.80693267  5016
STATUS=0
